NORAD_CAT_ID,OBJECT_NAME,OBJECT_TYPE,EPOCH,MEAN_MOTION,ECCENTRICITY,INCLINATION,RA_OF_ASC_NODE,ARG_OF_PERICENTER,MEAN_ANOMALY,BSTAR,MEAN_MOTION_DOT,MEAN_MOTION_DDOT,TLE_LINE0,TLE_LINE1,TLE_LINE2,SEMIMAJOR_AXIS,PERIOD,APOGEE,PERIGEE,DECAYED
53388.0,STARLINK-4522,PAYLOAD,2023-08-26 11:43:26,15.08833492,0.0001376,53.2171,321.9974,115.1301,244.9834,-1.9437e-05,-5.97e-06,0.0,0 STARLINK-4522,1 53388U 22097A   23238.48850685 -.00000597  00000-0 -19437-4 0  9990,2 53388  53.2171 321.9974 0001376 115.1301 244.9834 15.08833492 59025,6917.9,95.438,540.717,538.813,0.0
53388.0,STARLINK-4522,PAYLOAD,2023-08-27 09:58:50,15.0884762,0.0001316,53.2169,317.8394,71.8015,288.3121,0.00018548,2.666e-05,0.0,0 STARLINK-4522,1 53388U 22097A   23239.41586597  .00002666  00000-0  18548-3 0  9990,2 53388  53.2169 317.8394 0001316  71.8015 288.3121 15.08847620 58338,6917.857,95.437,540.632,538.812,0.0
53388.0,STARLINK-4522,PAYLOAD,2023-08-27 14:44:59,15.08854449,0.0001193,53.2167,316.9461,86.2835,273.8294,0.00041328,6.298e-05,0.0,0 STARLINK-4522,1 53388U 22097A   23239.61458316  .00006298  00000-0  41328-3 0  9996,2 53388  53.2167 316.9461 0001193  86.2835 273.8294 15.08854449 59196,6917.836,95.437,540.527,538.876,0.0
53388.0,STARLINK-4522,PAYLOAD,2023-08-28 11:25:00,15.08846579,0.0001562,53.2167,313.0805,92.6456,267.4715,0.0002491,3.679e-05,0.0,0 STARLINK-4522,1 53388U 22097A   23240.47570560  .00003679  00000-0  24910-3 0  9996,2 53388  53.2167 313.0805 0001562  92.6456 267.4715 15.08846579 58490,6917.86,95.437,540.806,538.645,0.0
53388.0,STARLINK-4522,PAYLOAD,2023-08-28 14:35:47,15.08851316,0.0001313,53.2168,312.4863,84.183,275.9312,0.00030098,4.507e-05,0.0,0 STARLINK-4522,1 53388U 22097A   23240.60818349  .00004507  00000-0  30098-3 0  9996,2 53388  53.2168 312.4863 0001313  84.1830 275.9312 15.08851316 59341,6917.846,95.437,540.619,538.802,0.0
53388.0,STARLINK-4522,PAYLOAD,2023-08-29 09:40:24,15.08842785,0.0001406,53.2177,308.9186,91.2049,268.9104,5.6512e-06,-1.98e-06,0.0,0 STARLINK-4522,1 53388U 22097A   23241.40306585 -.00000198  00000-0  56512-5 0  9993,2 53388  53.2177 308.9186 0001406  91.2049 268.9104 15.08842785 58635,6917.872,95.437,540.71,538.764,0.0
53388.0,STARLINK-4522,PAYLOAD,2023-08-29 14:26:34,15.08845466,0.0001448,53.2181,308.0259,96.7635,263.3522,2.3729e-05,9e-07,0.0,0 STARLINK-4522,1 53388U 22097A   23241.60178293  .00000090  00000-0  23729-4 0  9991,2 53388  53.2181 308.0259 0001448  96.7635 263.3522 15.08845466 59496,6917.864,95.437,540.73,538.727,0.0
53388.0,STARLINK-4522,PAYLOAD,2023-08-30 07:55:49,15.08835872,0.0001431,53.2174,304.7556,92.5205,267.5951,-3.0041e-05,-7.66e-06,0.0,0 STARLINK-4522,1 53388U 22097A   23242.33042968 -.00000766  00000-0 -30041-4 0  9998,2 53388  53.2174 304.7556 0001431  92.5205 267.5951 15.08835872 58772,6917.893,95.438,540.748,538.768,0.0
53388.0,STARLINK-4522,PAYLOAD,2023-08-30 20:38:54,15.08843562,0.0001524,53.2179,302.3759,84.6242,275.4924,1.1142e-05,-1.11e-06,0.0,0 STARLINK-4522,1 53388U 22097A   23242.86034795 -.00000111  00000-0  11142-4 0  9999,2 53388  53.2179 302.3759 0001524  84.6242 275.4924 15.08843562 59686,6917.87,95.437,540.789,538.68,0.0
53388.0,STARLINK-4522,PAYLOAD,2023-08-31 15:43:31,15.08844622,0.0001308,53.2171,298.8065,86.502,273.6121,0.00011841,1.597e-05,0.0,0 STARLINK-4522,1 53388U 22097A   23243.65522507  .00001597  00000-0  11841-3 0  9993,2 53388  53.2171 298.8065 0001308  86.5020 273.6121 15.08844622 59803,6917.866,95.437,540.636,538.826,0.0
53388.0,STARLINK-4522,PAYLOAD,2023-09-01 10:48:09,15.08846256,0.0002469,53.2165,295.2335,79.7319,280.3952,0.00013985,1.938e-05,0.0,0 STARLINK-4522,1 53388U 22097A   23244.45010825  .00001938  00000-0  13985-3 0  9997,2 53388  53.2165 295.2335 0002469  79.7319 280.3952 15.08846256 59094,6917.861,95.437,541.434,538.018,0.0
53388.0,STARLINK-4522,PAYLOAD,2023-09-01 20:20:29,15.08824546,0.0001614,53.2184,293.4539,89.841,270.2767,0.00032018,4.809e-05,0.0,0 STARLINK-4522,1 53388U 22097A   23244.84755903  .00004809  00000-0  32018-3 0  9991,2 53388  53.2184 293.4539 0001614  89.8410 270.2767 15.08824546 59153,6917.928,95.439,540.909,538.676,0.0
53388.0,STARLINK-4522,PAYLOAD,2023-09-02 12:14:19,15.08840045,0.0001534,53.2176,290.4799,79.8768,280.2397,0.00012782,1.747e-05,0.0,0 STARLINK-4522,1 53388U 22097A   23245.50995024  .00001747  00000-0  12782-3 0  9999,2 53388  53.2176 290.4799 0001534  79.8768 280.2397 15.08840045 60081,6917.88,95.438,540.806,538.684,0.0
53388.0,STARLINK-4522,PAYLOAD,2023-09-02 15:25:05,15.08843941,0.0001437,53.2185,289.8848,77.6601,282.4553,0.00015025,2.104e-05,0.0,0 STARLINK-4522,1 53388U 22097A   23245.64242707  .00002104  00000-0  15025-3 0  9998,2 53388  53.2185 289.8848 0001437  77.6601 282.4553 15.08843941 59277,6917.868,95.437,540.727,538.739,0.0
53388.0,STARLINK-4522,PAYLOAD,2023-09-02 20:11:15,15.08837063,0.0001489,53.2175,288.9932,84.516,275.6002,9.3754e-05,1.204e-05,0.0,0 STARLINK-4522,1 53388U 22097A   23245.84115354  .00001204  00000-0  93754-4 0  9993,2 53388  53.2175 288.9932 0001489  84.5160 275.6002 15.08837063 60132,6917.889,95.438,540.784,538.724,0.0
53388.0,STARLINK-4522,PAYLOAD,2023-09-03 08:54:20,15.08838563,0.0001031,53.2175,286.6145,85.8676,274.2434,5.5936e-05,6.03e-06,0.0,0 STARLINK-4522,1 53388U 22097A   23246.37107037  .00000603  00000-0  55936-4 0  9993,2 53388  53.2175 286.6145 0001031  85.8676 274.2434 15.08838563 60211,6917.885,95.438,540.463,539.037,0.0
53388.0,STARLINK-4522,PAYLOAD,2023-09-03 15:15:52,15.08848159,0.0001425,53.2156,285.4246,85.6755,274.44,0.0001799,2.577e-05,0.0,0 STARLINK-4522,1 53388U 22097A   23246.63602538  .00002577  00000-0  17990-3 0  9997,2 53388  53.2156 285.4246 0001425  85.6755 274.4400 15.08848159 59420,6917.855,95.437,540.706,538.735,0.0
53388.0,STARLINK-4522,PAYLOAD,2023-09-04 02:23:35,15.08827459,0.0001171,53.2161,283.344,80.9556,279.1568,-0.00010079,-1.891e-05,0.0,0 STARLINK-4522,1 53388U 22097A   23247.09971736 -.00001891  00000-0 -10079-3 0  9998,2 53388  53.2161 283.3440 0001171  80.9556 279.1568 15.08827459 59498,6917.919,95.438,540.594,538.974,0.0
53388.0,STARLINK-4522,PAYLOAD,2023-09-04 11:55:54,15.08835187,0.0001129,53.2163,281.5595,81.7945,278.3176,-3.6303e-05,-8.65e-06,0.0,0 STARLINK-4522,1 53388U 22097A   23247.49715589 -.00000865  00000-0 -36303-4 0  9993,2 53388  53.2163 281.5595 0001129  81.7945 278.3176 15.08835187 60388,6917.895,95.438,540.541,538.979,0.0
53388.0,STARLINK-4522,PAYLOAD,2023-09-04 19:52:50,15.08828659,0.0001283,53.2151,280.0722,82.0961,278.0176,-8.8356e-05,-1.693e-05,0.0,0 STARLINK-4522,1 53388U 22097A   23247.82836187 -.00001693  00000-0 -88356-4 0  9993,2 53388  53.2151 280.0722 0001283  82.0961 278.0176 15.08828659 60433,6917.915,95.438,540.668,538.892,0.0
53388.0,STARLINK-4522,PAYLOAD,2023-09-05 19:43:36,15.08861189,0.000118,53.2159,275.6114,83.7813,276.3314,-0.00045736,-7.564e-05,0.0,0 STARLINK-4522,1 53388U 22097A   23248.82195535 -.00007564  00000-0 -45736-3 0  9996,2 53388  53.2159 275.6114 0001180  83.7813 276.3314 15.08861189 59759,6917.816,95.436,540.497,538.864,0.0
53388.0,STARLINK-4522,PAYLOAD,2023-09-06 13:12:52,15.08838047,0.000141,53.2158,272.3401,79.4923,280.6228,0.00018518,2.66e-05,0.0,0 STARLINK-4522,1 53388U 22097A   23249.55061052  .00002660  00000-0  18518-3 0  9991,2 53388  53.2158 272.3401 0001410  79.4923 280.6228 15.08838047 59862,6917.886,95.438,540.727,538.776,0.0
53388.0,STARLINK-4522,PAYLOAD,2023-09-07 08:17:30,15.08859181,0.0001397,53.2154,268.7719,74.2985,285.8161,0.00055682,8.59e-05,0.0,0 STARLINK-4522,1 53388U 22097A   23250.34548656  .00008590  00000-0  55682-3 0  9991,2 53388  53.2154 268.7719 0001397  74.2985 285.8161 15.08859181 59982,6917.822,95.436,540.653,538.72,0.0
53388.0,STARLINK-4522,PAYLOAD,2023-09-07 13:03:39,15.0886396,0.0001404,53.2154,267.8797,75.3053,284.8094,0.00057501,8.881e-05,0.0,0 STARLINK-4522,1 53388U 22097A   23250.54420296  .00008881  00000-0  57501-3 0  9997,2 53388  53.2154 267.8797 0001404  75.3053 284.8094 15.08863960 60846,6917.807,95.436,540.643,538.701,0.0
53388.0,STARLINK-4522,PAYLOAD,2023-09-08 00:11:20,15.08861356,0.0001767,53.2152,265.7971,86.2521,273.8673,0.00037236,5.646e-05,0.0,0 STARLINK-4522,1 53388U 22097A   23251.00788113  .00005646  00000-0  37236-3 0  9993,2 53388  53.2152 265.7971 0001767  86.2521 273.8673 15.08861356 60082,6917.815,95.436,540.902,538.458,0.0
53388.0,STARLINK-4522,PAYLOAD,2023-09-08 11:19:02,15.08860332,0.0001468,53.2158,263.7169,76.1699,283.9457,0.00023948,3.527e-05,0.0,0 STARLINK-4522,1 53388U 22097A   23251.47155602  .00003527  00000-0  23948-3 0  9996,2 53388  53.2158 263.7169 0001468  76.1699 283.9457 15.08860332 60981,6917.818,95.436,540.699,538.668,0.0
53388.0,STARLINK-4522,PAYLOAD,2023-09-08 17:40:35,15.08848297,0.0001443,53.2158,262.5268,75.9344,284.1808,-8.8337e-06,-4.29e-06,0.0,0 STARLINK-4522,1 53388U 22097A   23251.73651767 -.00000429  00000-0 -88337-5 0  9993,2 53388  53.2158 262.5268 0001443  75.9344 284.1808 15.08848297 60197,6917.855,95.437,540.718,538.722,0.0
53388.0,STARLINK-4522,PAYLOAD,2023-09-09 12:45:12,15.08855259,0.0001692,53.2162,258.9585,89.8314,270.2872,-0.00019126,-3.332e-05,0.0,0 STARLINK-4522,1 53388U 22097A   23252.53139109 -.00003332  00000-0 -19126-3 0  9997,2 53388  53.2162 258.9585 0001692  89.8314 270.2872 15.08855259 61149,6917.834,95.437,540.869,538.528,0.0
53388.0,STARLINK-4522,PAYLOAD,2023-09-10 09:25:13,15.08843873,0.0001614,53.2159,255.0927,89.5471,270.5706,5.216e-05,5.42e-06,0.0,0 STARLINK-4522,1 53388U 22097A   23253.39251737  .00000542  00000-0  52160-4 0  9998,2 53388  53.2159 255.0927 0001614  89.5471 270.5706 15.08843873 60448,6917.869,95.437,540.85,538.617,0.0
53388.0,STARLINK-4522,PAYLOAD,2023-09-10 12:36:00,15.08833925,0.0001862,53.2164,254.4977,102.0038,258.1163,0.00046238,7.077e-05,0.0,0 STARLINK-4522,1 53388U 22097A   23253.52500362  .00007077  00000-0  46238-3 0  9992,2 53388  53.2164 254.4977 0001862 102.0038 258.1163 15.08833925 61297,6917.899,95.438,541.052,538.476,0.0
